TEVEL2-9                
1 63237U 25052AD  26068.70229538  .00018694  00000+0  67240-3 0  9992
2 63237  97.4057 324.3929 0007990 124.2475 235.9522 15.28633834 54816
STARLINK-35475          
1 65865U 25223M   26067.92912022  .00014747  00000+0  50901-3 0  9992
2 65865  53.1572 297.3932 0001193  75.0810 285.0323 15.30202900 24095
